[{"OBJECT_NAME":"STARLINK-30483","OBJECT_ID":"2023-147B","EPOCH":"2026-03-09T07:50:44.504736","MEAN_MOTION":15.27496247,"ECCENTRICITY":0.00011429,"INCLINATION":42.9991,"RA_OF_ASC_NODE":181.673,"ARG_OF_PERICENTER":141.0292,"MEAN_ANOMALY":219.0642,"EPHEMERIS_TYPE":0,"CLASSIFICATION_TYPE":"U","NORAD_CAT_ID":57914,"ELEMENT_SET_NO":999,"REV_AT_EPOCH":13825,"BSTAR":0.00063040794,"MEAN_MOTION_DOT":0.00017081,"MEAN_MOTION_DDOT":0},{"OBJECT_NAME":"YAOGAN-43 01G","OBJECT_ID":"2024-148G","EPOCH":"2026-03-09T10:38:37.087584","MEAN_MOTION":15.28332833,"ECCENTRICITY":0.00073829,"INCLINATION":35.0006,"RA_OF_ASC_NODE":62.0013,"ARG_OF_PERICENTER":306.3543,"MEAN_ANOMALY":53.6492,"EPHEMERIS_TYPE":0,"CLASSIFICATION_TYPE":"U","NORAD_CAT_ID":60464,"ELEMENT_SET_NO":999,"REV_AT_EPOCH":8700,"BSTAR":0.00035872736,"MEAN_MOTION_DOT":0.00010133,"MEAN_MOTION_DDOT":0}]
